[{"OBJECT_NAME":"RISAT-2BR1","OBJECT_ID":"2019-089F","EPOCH":"2026-03-09T22:23:56.080608","MEAN_MOTION":15.01632497,"ECCENTRICITY":0.00130957,"INCLINATION":36.9618,"RA_OF_ASC_NODE":340.419,"ARG_OF_PERICENTER":88.0635,"MEAN_ANOMALY":272.1607,"EPHEMERIS_TYPE":0,"CLASSIFICATION_TYPE":"U","NORAD_CAT_ID":44857,"ELEMENT_SET_NO":999,"REV_AT_EPOCH":34227,"BSTAR":0.00042406412,"MEAN_MOTION_DOT":5.543e-5,"MEAN_MOTION_DDOT":0},{"OBJECT_NAME":"STARLINK-34979","OBJECT_ID":"2025-179V","EPOCH":"2026-03-09T16:26:15.786816","MEAN_MOTION":15.05648512,"ECCENTRICITY":8.763e-5,"INCLINATION":97.6021,"RA_OF_ASC_NODE":112.898,"ARG_OF_PERICENTER":165.1317,"MEAN_ANOMALY":194.9936,"EPHEMERIS_TYPE":0,"CLASSIFICATION_TYPE":"U","NORAD_CAT_ID":65254,"ELEMENT_SET_NO":999,"REV_AT_EPOCH":3181,"BSTAR":5.3922991e-5,"MEAN_MOTION_DOT":7.17e-6,"MEAN_MOTION_DDOT":0}]
